ONEWEB-0400             
1 50480U 21132M   26026.42322955  .00000063  00000+0  12672-3 0  9993
2 50480  87.9204   3.5846 0001805  90.5333 269.6006 13.18686177202924
ONEWEB-0401             
1 50481U 21132N   26027.30238088  .00000102  00000+0  22549-3 0  9993
2 50481  87.9201   3.4061 0001717  77.6279 282.5045 13.18688957203046
ONEWEB-0402             
1 50482U 21132P   26026.43147068  .00000072  00000+0  15115-3 0  9991
2 50482  87.9200   3.5716 0001645  67.6754 292.4553 13.18685410202955
ONEWEB-0403             
1 50483U 21132Q   26027.29086230  .00000029  00000+0  40706-4 0  9997
2 50483  87.9202   3.4233 0001918  84.1214 276.0136 13.18686363203021
ONEWEB-0404             
1 50484U 21132R   26027.33506831  .00000146  00000+0  37680-3 0  9993
2 50484  87.8815  49.1036 0002152  91.4981 268.6394 13.11417642197235
ONEWEB-0405             
1 50485U 21132S   26027.30570484  .00000051  00000+0  95489-4 0  9993
2 50485  87.9202   3.4040 0001838  74.8487 285.2849 13.18686703203423
ONEWEB-0406             
1 50486U 21132T   26027.29580943  .00000112  00000+0  25037-3 0  9992
2 50486  87.9202   3.4317 0002248  91.5451 268.5939 13.18686640203057
ONEWEB-0407             
1 50487U 21132U   26027.28920861  .00000106  00000+0  23504-3 0  9999
2 50487  87.9202   3.4163 0001656  81.9645 278.1675 13.18686387202991
ONEWEB-0409             
1 50488U 21132V   26027.33337822  .00000078  00000+0  18392-3 0  9992
2 50488  87.8833  49.0802 0002155  97.5896 262.5477 13.11417830197126
ONEWEB-0412             
1 50489U 21132W   26027.20178203  .00000022  00000+0  23571-4 0  9990
2 50489  87.9204   3.4471 0001769  73.6199 286.5128 13.18686037203072
ONEWEB-0413             
1 50490U 21132X   26027.20672441  .00000093  00000+0  20230-3 0  9991
2 50490  87.9194   3.4545 0001599  76.2965 283.8345 13.18687784203010
ONEWEB-0414             
1 50491U 21132Y   26026.88838455  .00000064  00000+0  13010-3 0  9990
2 50491  87.9204   3.4855 0001900  78.1671 281.9674 13.18686256203004
ONEWEB-0417             
1 50492U 21132Z   26026.89662260  .00000157  00000+0  36578-3 0  9998
2 50492  87.9194   3.5152 0002046  86.4254 273.7112 13.18686857202984
ONEWEB-0418             
1 50493U 21132AA  26026.90639291 -.00000015  00000+0 -70859-4 0  9995
2 50493  87.9204   3.4995 0002269  88.8728 271.2664 13.18686231203049
ONEWEB-0419             
1 50494U 21132AB  26027.30405731 -.00000135  00000+0 -37434-3 0  9995
2 50494  87.9203   3.4206 0001967  92.6149 267.5208 13.18684949203011
ONEWEB-0420             
1 50495U 21132AC  26026.89003236  .00000059  00000+0  11745-3 0  9993
2 50495  87.9204   3.5154 0001641  82.9704 277.1614 13.18686768202955
ONEWEB-0421             
1 50496U 21132AD  26026.65580873 -.00000022  00000+0 -88142-4 0  9993
2 50496  87.9199   3.5538 0001950  75.8726 284.2623 13.18687138202965
