[{"OBJECT_NAME":"ONEWEB-0400","OBJECT_ID":"2021-132M","EPOCH":"2026-01-26T10:09:27.033120","MEAN_MOTION":13.18686177,"ECCENTRICITY":0.00018051,"INCLINATION":87.9204,"RA_OF_ASC_NODE":3.5846,"ARG_OF_PERICENTER":90.5333,"MEAN_ANOMALY":269.6006,"EPHEMERIS_TYPE":0,"CLASSIFICATION_TYPE":"U","NORAD_CAT_ID":50480,"ELEMENT_SET_NO":999,"REV_AT_EPOCH":20292,"BSTAR":0.00012672419,"MEAN_MOTION_DOT":6.3e-7,"MEAN_MOTION_DDOT":0},{"OBJECT_NAME":"ONEWEB-0401","OBJECT_ID":"2021-132N","EPOCH":"2026-01-27T07:15:25.708032","MEAN_MOTION":13.18688957,"ECCENTRICITY":0.00017171,"INCLINATION":87.9201,"RA_OF_ASC_NODE":3.4061,"ARG_OF_PERICENTER":77.6279,"MEAN_ANOMALY":282.5045,"EPHEMERIS_TYPE":0,"CLASSIFICATION_TYPE":"U","NORAD_CAT_ID":50481,"ELEMENT_SET_NO":999,"REV_AT_EPOCH":20304,"BSTAR":0.000225492,"MEAN_MOTION_DOT":1.02e-6,"MEAN_MOTION_DDOT":0},{"OBJECT_NAME":"ONEWEB-0402","OBJECT_ID":"2021-132P","EPOCH":"2026-01-26T10:21:19.066752","MEAN_MOTION":13.1868541,"ECCENTRICITY":0.00016453,"INCLINATION":87.92,"RA_OF_ASC_NODE":3.5716,"ARG_OF_PERICENTER":67.6754,"MEAN_ANOMALY":292.4553,"EPHEMERIS_TYPE":0,"CLASSIFICATION_TYPE":"U","NORAD_CAT_ID":50482,"ELEMENT_SET_NO":999,"REV_AT_EPOCH":20295,"BSTAR":0.00015114937,"MEAN_MOTION_DOT":7.2e-7,"MEAN_MOTION_DDOT":0},{"OBJECT_NAME":"ONEWEB-0403","OBJECT_ID":"2021-132Q","EPOCH":"2026-01-27T06:58:50.502720","MEAN_MOTION":13.18686363,"ECCENTRICITY":0.00019184,"INCLINATION":87.9202,"RA_OF_ASC_NODE":3.4233,"ARG_OF_PERICENTER":84.1214,"MEAN_ANOMALY":276.0136,"EPHEMERIS_TYPE":0,"CLASSIFICATION_TYPE":"U","NORAD_CAT_ID":50483,"ELEMENT_SET_NO":999,"REV_AT_EPOCH":20302,"BSTAR":4.0706321e-5,"MEAN_MOTION_DOT":2.9e-7,"MEAN_MOTION_DDOT":0},{"OBJECT_NAME":"ONEWEB-0404","OBJECT_ID":"2021-132R","EPOCH":"2026-01-27T08:02:29.901984","MEAN_MOTION":13.11417642,"ECCENTRICITY":0.00021526,"INCLINATION":87.8815,"RA_OF_ASC_NODE":49.1036,"ARG_OF_PERICENTER":91.4981,"MEAN_ANOMALY":268.6394,"EPHEMERIS_TYPE":0,"CLASSIFICATION_TYPE":"U","NORAD_CAT_ID":50484,"ELEMENT_SET_NO":999,"REV_AT_EPOCH":19723,"BSTAR":0.0003768009,"MEAN_MOTION_DOT":1.46e-6,"MEAN_MOTION_DDOT":0},{"OBJECT_NAME":"ONEWEB-0405","OBJECT_ID":"2021-132S","EPOCH":"2026-01-27T07:20:12.898176","MEAN_MOTION":13.18686703,"ECCENTRICITY":0.00018381,"INCLINATION":87.9202,"RA_OF_ASC_NODE":3.404,"ARG_OF_PERICENTER":74.8487,"MEAN_ANOMALY":285.2849,"EPHEMERIS_TYPE":0,"CLASSIFICATION_TYPE":"U","NORAD_CAT_ID":50485,"ELEMENT_SET_NO":999,"REV_AT_EPOCH":20342,"BSTAR":9.5488967e-5,"MEAN_MOTION_DOT":5.1e-7,"MEAN_MOTION_DDOT":0},{"OBJECT_NAME":"ONEWEB-0406","OBJECT_ID":"2021-132T","EPOCH":"2026-01-27T07:05:57.934752","MEAN_MOTION":13.1868664,"ECCENTRICITY":0.00022481,"INCLINATION":87.9202,"RA_OF_ASC_NODE":3.4317,"ARG_OF_PERICENTER":91.5451,"MEAN_ANOMALY":268.5939,"EPHEMERIS_TYPE":0,"CLASSIFICATION_TYPE":"U","NORAD_CAT_ID":50486,"ELEMENT_SET_NO":999,"REV_AT_EPOCH":20305,"BSTAR":0.00025037243,"MEAN_MOTION_DOT":1.12e-6,"MEAN_MOTION_DDOT":0},{"OBJECT_NAME":"ONEWEB-0407","OBJECT_ID":"2021-132U","EPOCH":"2026-01-27T06:56:27.623904","MEAN_MOTION":13.18686387,"ECCENTRICITY":0.00016563,"INCLINATION":87.9202,"RA_OF_ASC_NODE":3.4163,"ARG_OF_PERICENTER":81.9645,"MEAN_ANOMALY":278.1675,"EPHEMERIS_TYPE":0,"CLASSIFICATION_TYPE":"U","NORAD_CAT_ID":50487,"ELEMENT_SET_NO":999,"REV_AT_EPOCH":20299,"BSTAR":0.00023503638,"MEAN_MOTION_DOT":1.06e-6,"MEAN_MOTION_DDOT":0},{"OBJECT_NAME":"ONEWEB-0409","OBJECT_ID":"2021-132V","EPOCH":"2026-01-27T08:00:03.878208","MEAN_MOTION":13.1141783,"ECCENTRICITY":0.00021556,"INCLINATION":87.8833,"RA_OF_ASC_NODE":49.0802,"ARG_OF_PERICENTER":97.5896,"MEAN_ANOMALY":262.5477,"EPHEMERIS_TYPE":0,"CLASSIFICATION_TYPE":"U","NORAD_CAT_ID":50488,"ELEMENT_SET_NO":999,"REV_AT_EPOCH":19712,"BSTAR":0.00018391777,"MEAN_MOTION_DOT":7.8e-7,"MEAN_MOTION_DDOT":0},{"OBJECT_NAME":"ONEWEB-0412","OBJECT_ID":"2021-132W","EPOCH":"2026-01-27T04:50:33.967392","MEAN_MOTION":13.18686037,"ECCENTRICITY":0.00017697,"INCLINATION":87.9204,"RA_OF_ASC_NODE":3.4471,"ARG_OF_PERICENTER":73.6199,"MEAN_ANOMALY":286.5128,"EPHEMERIS_TYPE":0,"CLASSIFICATION_TYPE":"U","NORAD_CAT_ID":50489,"ELEMENT_SET_NO":999,"REV_AT_EPOCH":20307,"BSTAR":2.3570555e-5,"MEAN_MOTION_DOT":2.2e-7,"MEAN_MOTION_DDOT":0},{"OBJECT_NAME":"ONEWEB-0413","OBJECT_ID":"2021-132X","EPOCH":"2026-01-27T04:57:40.989024","MEAN_MOTION":13.18687784,"ECCENTRICITY":0.00015997,"INCLINATION":87.9194,"RA_OF_ASC_NODE":3.4545,"ARG_OF_PERICENTER":76.2965,"MEAN_ANOMALY":283.8345,"EPHEMERIS_TYPE":0,"CLASSIFICATION_TYPE":"U","NORAD_CAT_ID":50490,"ELEMENT_SET_NO":999,"REV_AT_EPOCH":20301,"BSTAR":0.00020229666,"MEAN_MOTION_DOT":9.3e-7,"MEAN_MOTION_DDOT":0},{"OBJECT_NAME":"ONEWEB-0414","OBJECT_ID":"2021-132Y","EPOCH":"2026-01-26T21:19:16.425120","MEAN_MOTION":13.18686256,"ECCENTRICITY":0.00019,"INCLINATION":87.9204,"RA_OF_ASC_NODE":3.4855,"ARG_OF_PERICENTER":78.1671,"MEAN_ANOMALY":281.9674,"EPHEMERIS_TYPE":0,"CLASSIFICATION_TYPE":"U","NORAD_CAT_ID":50491,"ELEMENT_SET_NO":999,"REV_AT_EPOCH":20300,"BSTAR":0.00013010173,"MEAN_MOTION_DOT":6.4e-7,"MEAN_MOTION_DDOT":0},{"OBJECT_NAME":"ONEWEB-0417","OBJECT_ID":"2021-132Z","EPOCH":"2026-01-26T21:31:08.192640","MEAN_MOTION":13.18686857,"ECCENTRICITY":0.00020469,"INCLINATION":87.9194,"RA_OF_ASC_NODE":3.5152,"ARG_OF_PERICENTER":86.4254,"MEAN_ANOMALY":273.7112,"EPHEMERIS_TYPE":0,"CLASSIFICATION_TYPE":"U","NORAD_CAT_ID":50492,"ELEMENT_SET_NO":999,"REV_AT_EPOCH":20298,"BSTAR":0.00036578178,"MEAN_MOTION_DOT":1.57e-6,"MEAN_MOTION_DDOT":0},{"OBJECT_NAME":"ONEWEB-0418","OBJECT_ID":"2021-132AA","EPOCH":"2026-01-26T21:45:12.347424","MEAN_MOTION":13.18686231,"ECCENTRICITY":0.00022695,"INCLINATION":87.9204,"RA_OF_ASC_NODE":3.4995,"ARG_OF_PERICENTER":88.8728,"MEAN_ANOMALY":271.2664,"EPHEMERIS_TYPE":0,"CLASSIFICATION_TYPE":"U","NORAD_CAT_ID":50493,"ELEMENT_SET_NO":999,"REV_AT_EPOCH":20304,"BSTAR":-7.0859461e-5,"MEAN_MOTION_DOT":-1.5e-7,"MEAN_MOTION_DDOT":0},{"OBJECT_NAME":"ONEWEB-0419","OBJECT_ID":"2021-132AB","EPOCH":"2026-01-27T07:17:50.551584","MEAN_MOTION":13.18684949,"ECCENTRICITY":0.00019671,"INCLINATION":87.9203,"RA_OF_ASC_NODE":3.4206,"ARG_OF_PERICENTER":92.6149,"MEAN_ANOMALY":267.5208,"EPHEMERIS_TYPE":0,"CLASSIFICATION_TYPE":"U","NORAD_CAT_ID":50494,"ELEMENT_SET_NO":999,"REV_AT_EPOCH":20301,"BSTAR":-0.00037434395,"MEAN_MOTION_DOT":-1.35e-6,"MEAN_MOTION_DDOT":0},{"OBJECT_NAME":"ONEWEB-0420","OBJECT_ID":"2021-132AC","EPOCH":"2026-01-26T21:21:38.795904","MEAN_MOTION":13.18686768,"ECCENTRICITY":0.00016413,"INCLINATION":87.9204,"RA_OF_ASC_NODE":3.5154,"ARG_OF_PERICENTER":82.9704,"MEAN_ANOMALY":277.1614,"EPHEMERIS_TYPE":0,"CLASSIFICATION_TYPE":"U","NORAD_CAT_ID":50495,"ELEMENT_SET_NO":999,"REV_AT_EPOCH":20295,"BSTAR":0.00011744644,"MEAN_MOTION_DOT":5.9e-7,"MEAN_MOTION_DDOT":0},{"OBJECT_NAME":"ONEWEB-0421","OBJECT_ID":"2021-132AD","EPOCH":"2026-01-26T15:44:21.874272","MEAN_MOTION":13.18687138,"ECCENTRICITY":0.00019502,"INCLINATION":87.9199,"RA_OF_ASC_NODE":3.5538,"ARG_OF_PERICENTER":75.8726,"MEAN_ANOMALY":284.2623,"EPHEMERIS_TYPE":0,"CLASSIFICATION_TYPE":"U","NORAD_CAT_ID":50496,"ELEMENT_SET_NO":999,"REV_AT_EPOCH":20296,"BSTAR":-8.814239e-5,"MEAN_MOTION_DOT":-2.2e-7,"MEAN_MOTION_DDOT":0}]
